0135P         2022 04  7.0159  2.679900  0.295539   22.2495  213.0480    6.0614  20200713   9.0  4.0  135P/Shoemaker-Levy                                      MPEC 2015-E14
0136P         2016 05 31.3071  2.969580  0.292179  224.8901  137.4446    9.4238  20200713  11.0  4.0  136P/Mueller                                             MPC101100
0137P         2018 12 13.4602  1.929212  0.573217  141.0060  233.0656    4.8534  20200713  11.0  4.0  137P/Shoemaker-Levy                                      MPEC 2020-HN5
0138P         2019 05  2.7408  1.702084  0.530229   95.5772  309.3316   10.0910  20200713  15.0  6.0  138P/Shoemaker-Levy                                      MPEC 2016-U66
0139P         2017 12  9.4653  3.410161  0.246330  165.7860  242.1973    2.3334  20200713   9.5  4.0  139P/Vaisala-Oterma                                      MPEC 2020-HN5
0140P         2015 08  6.6964  1.987842  0.691146  172.9243  343.3189    3.8275  20200713  11.5  6.0  140P/Bowell-Skiff                                        MPEC 2015-E14
0141P         2020 12 15.4012  0.807886  0.735691  153.5358  241.8563   13.9469  20200713  12.0 12.0  141P/Machholz                                            MPC105242
0141P      h  2015 08 24.3866  0.761562  0.746822  149.4500  246.0900   12.8431            18.5  4.0  141P-H/Machholz                                          MPC 95735
0142P         2021 05 12.8811  2.511452  0.498479  173.9805  176.0148   12.2389  20200713   9.0  4.0  142P/Ge-Wang                                             MPC 71683
0143P         2018 05  5.9835  2.526623  0.410571  320.5005  245.2703    4.6970  20200713  13.5  2.0  143P/Kowal-Mrkos                                         MPEC 2020-HN5
0144P         2024 01 25.8096  1.375378  0.639002  215.8619  243.9179    3.9859  20200713   8.5  8.0  144P/Kushida                                             MPC104795
0145P         2017 08 31.8277  1.900680  0.540917   10.2640   26.7901   11.2662  20200713  13.5  4.0  145P/Shoemaker-Levy                                      MPC108598
0146P         2016 06 30.2789  1.425668  0.646541  316.9106   53.4241   23.0827  20200713  15.0  4.0  146P/Shoemaker-LINEAR                                    MPC100284
0147P         2023 11 29.1757  2.978982  0.244250  351.3589   93.3320    2.3671  20200713  14.0  4.0  147P/Kushida-Muramatsu                                   MPC 75720
0148P         2022 06 13.7224  1.650295  0.547658    6.8327   89.6114    3.6775  20200713   9.0  4.0  148P/Anderson-LINEAR                                     MPEC 2014-R70
0149P         2019 02 17.8958  2.635119  0.390994   44.0875  145.1324   29.8093  20200713   8.0  8.0  149P/Mueller                                             MPC 75720
0150P         2024 03 15.2735  1.759527  0.546533  245.5766  272.4036   18.5075  20200713  13.5  4.0  150P/LONEOS                                              MPC 75720
0151P         2015 10  9.1859  2.461691  0.572973  216.0492  143.1496    4.7269  20200713  10.0  6.0  151P/Helin                                               MPEC 2015-Q71
0152P         2022 01 13.1086  3.095783  0.309131  163.8197   91.8691    9.8798  20200713  11.5  4.0  152P/Helin-Lawrence                                      MPC 79346
0153P         2002 03 10.3511  0.526623  0.989649   35.2103   93.0515   27.7123  20200713   9.0  4.0  153P/Ikeya-Zhang                                         MPC 46101
0154P         2024 06 14.8358  1.560537  0.675146   47.8471  343.0165   17.6299  20200713   2.5 12.0  154P/Brewington                                          MPC 87068
0155P         2019 11 14.9902  1.801745  0.726397   14.6548   97.1978    6.3959  20200713  10.0  4.8  155P/Shoemaker                                           MPC118098
0156P         2020 11 17.8604  1.333085  0.614766    0.4140   35.3730   17.2626  20200713  15.5  2.0  156P/Russell-LINEAR                                      MPEC 2020-N31
0157P         2022 08 30.1427  1.499264  0.573658  155.6273  287.9393   12.8682  20200713  10.0  4.0  157P/Tritton                                             MPC104795
0158P         2021 11 28.9626  4.790161  0.017147  190.9551  135.7721    7.9400  20200713   9.0  4.0  158P/Kowal-LINEAR                                        MPEC 2016-K18
0159P         2018 05 21.9957  3.622447  0.381463    4.6225   55.0052   23.4612  20200713  10.0  4.0  159P/LONEOS                                              MPEC 2020-L06
0160P         2019 12  2.3069  1.787424  0.526175   12.6619  333.3654   15.6157  20200713  15.5  2.0  160P/LINEAR                                              MPEC 2019-TG9
0161P         2026 11 29.0842  1.278621  0.834529   46.9199    1.4723   95.7452  20200713   8.5  6.0  161P/Hartley-IRAS                                        MPC 75721
0162P         2020 12  7.8075  1.289185  0.582945  357.1198   30.9170   27.5541  20200713  12.0  4.0  162P/Siding Spring                                       MPEC 2020-N31
0163P         2019 08  5.1407  2.066279  0.451844  349.6619  102.0919   12.7079  20200713  14.5  4.0  163P/NEAT                                                MPEC 2020-HN5
0164P         2018 05 31.2659  1.683848  0.539692  325.8543   88.3046   16.2534  20200713  11.0  4.0  164P/Christensen                                         MPC106349
0165P         2000 05 18.4705  6.896860  0.614729  126.2040    0.7652   15.8989  20200713  11.5  2.0  165P/LINEAR                                              MPC 75721
0166P         2002 05  6.2997  8.544400  0.382211  321.4470   64.4974   15.3621  20200713   5.5  4.0  166P/NEAT                                                MPC 75722
0167P         2001 05  6.8613 11.770202  0.272981  344.2085  295.6517   19.1216  20200713   9.5  2.0  167P/CINEOS                                              MPC 75722
0168P         2019 08  5.1760  1.358635  0.620700   14.9916  355.4614   21.6135  20200713  15.5  4.0  168P/Hergenrother                                        MPC102101
0169P         2022 07  9.9164  0.603556  0.767988  218.0647  176.0914   11.2963  20200713  16.0  2.0  169P/NEAT                                                MPEC 2020-L06
0170P         2023 04 21.6881  2.924211  0.303460  225.6393  142.9218   10.1250  20200713  12.0  4.0  170P/Christensen                                         MPC 89012
0171P         2019 01 13.5641  1.772312  0.501655  347.1147  101.6973   21.9336  20200713  13.5  4.0  171P/Spahr                                               MPC102102
0172P         2017 03 13.7827  3.343095  0.206076  209.3868   30.8969   11.2324  20200713  13.0  4.0  172P/Yeung                                               MPEC 2019-VB6
0173P         2021 12 17.9486  4.215880  0.260529   29.3367  100.4009   16.4972  20200713   7.5  4.0  173P/Mueller                                             MPEC 2020-HN5
0174P         2015 04 23.4003  5.811366  0.457133  162.9321  173.2573    4.3431  20200713   9.4  2.0  174P/Echeclus                                            MPC 92985
0175P         2019 09 30.9754  1.946861  0.432442   56.2709  123.5263    6.0779  20200713  14.0  4.0  175P/Hergenrother                                        MPC114608
0176P         2022 11 23.9816  2.576851  0.192998   35.1329  345.8856    0.2348  20200713  15.1  2.0  176P/LINEAR                                              MPC 89015
0177P         2006 08 30.3415  1.093674  0.955147   60.1593  272.3478   31.3318  20200713  15.0  4.0  177P/Barnard                                             MPEC 2020-L06
0178P         2020 07 16.6076  1.881273  0.481802  297.7846  102.8742   11.0897  20200713  13.5  4.0  178P/Hug-Bell                                            MPC105242
0179P         2022 05 27.7348  4.122865  0.306191  296.5316  115.5258   19.8989  20200713   2.5  8.0  179P/Jedicke                                             MPC 75723
0180P         2023 07 12.8327  2.497184  0.353288   94.8861   84.5577   16.8682  20200713  11.0  4.0  180P/NEAT                                                MPC100284
0181P         2022 01  8.8635  1.159815  0.700390  336.2527   35.4117   17.4862  20200713  11.5  4.0  181P/Shoemaker-Levy                                      MPC 89012
0182P         2022 05 12.8486  0.999803  0.661781   53.8440   72.7064   16.2334  20200713  18.0  4.0  182P/LONEOS                                              MPEC 2014-J10
0183P         2017 11 27.5863  3.889585  0.139565  164.1024    5.2705   18.6800  20200713  12.5  2.0  183P/Korlevic-Juric                                      MPC110085
0184P         2020 10 26.1787  1.703289  0.551119  186.4265  173.2580    4.5725  20200713  13.5  4.0  184P/Lovas                                               MPEC 2020-N31
0185P         2018 01 27.4749  0.933172  0.698925  181.8827  214.0957   13.9985  20200713  15.0  4.0  185P/Petriew                                             MPC109593
0186P         2019 05  3.4715  4.388207  0.124323  283.8831  326.7719   28.5409  20200713   7.5  4.0  186P/Garradd                                             MPEC 2020-N31
0187P         2018 05 18.0787  3.876534  0.152384  132.1877  109.9235   13.6347  20200713   9.0  4.0  187P/LINEAR                                              MPC104795
0188P         2017 02 16.9225  2.558890  0.415255   26.5853  358.9564   10.5202  20200713  11.5  4.0  188P/LINEAR-Mueller                                      MPC106349
0189P         2022 08 28.6623  1.212072  0.588739   16.2556  281.7410   20.0741  20200713  19.0  4.0  189P/NEAT                                                MPC106349
0190P         2016 04  7.4256  2.029657  0.520820   50.2817  335.5739    2.1742  20200713  13.0  4.0  190P/Mueller                                             MPEC 2020-N31
0191P         2021 03 19.8928  2.232431  0.386388  283.9343   98.2389    8.8435  20200713  13.0  4.0  191P/McNaught                                            MPEC 2020-N31
